CCSDS_OMM_VERS = 2.0
CREATION_DATE  = 
ORIGINATOR     = 

OBJECT_NAME    = SL-14 R/B
OBJECT_ID      = 1991-042B
CENTER_NAME    = EARTH
REF_FRAME      = TEME
TIME_SYSTEM    = UTC
MEAN_ELEMENT_THEORY = SGP/SGP4

EPOCH          = 2026-02-07T02:25:04.014624
MEAN_MOTION    = 14.81800423
ECCENTRICITY   = .00166836
INCLINATION    = 82.4899
RA_OF_ASC_NODE = 248.8735
ARG_OF_PERICENTER = 346.7344
MEAN_ANOMALY   = 13.3429

EPHEMERIS_TYPE = 0
CLASSIFICATION_TYPE = U
NORAD_CAT_ID   = 21423
ELEMENT_SET_NO = 999
REV_AT_EPOCH   = 84854
BSTAR          = .61011039E-4
MEAN_MOTION_DOT = .506E-5
MEAN_MOTION_DDOT = 0

CCSDS_OMM_VERS = 2.0
CREATION_DATE  = 
ORIGINATOR     = 

OBJECT_NAME    = ERS-1
OBJECT_ID      = 1991-050A
CENTER_NAME    = EARTH
REF_FRAME      = TEME
TIME_SYSTEM    = UTC
MEAN_ELEMENT_THEORY = SGP/SGP4

EPOCH          = 2026-02-07T11:02:09.086496
MEAN_MOTION    = 14.39424405
ECCENTRICITY   = .0030945
INCLINATION    = 98.7897
RA_OF_ASC_NODE = 55.9342
ARG_OF_PERICENTER = 292.7361
MEAN_ANOMALY   = 67.0557

EPHEMERIS_TYPE = 0
CLASSIFICATION_TYPE = U
NORAD_CAT_ID   = 21574
ELEMENT_SET_NO = 999
REV_AT_EPOCH   = 81138
BSTAR          = .15907E-3
MEAN_MOTION_DOT = .451E-5
MEAN_MOTION_DDOT = 0

CCSDS_OMM_VERS = 2.0
CREATION_DATE  = 
ORIGINATOR     = 

OBJECT_NAME    = ARIANE 40 R/B
OBJECT_ID      = 1991-050F
CENTER_NAME    = EARTH
REF_FRAME      = TEME
TIME_SYSTEM    = UTC
MEAN_ELEMENT_THEORY = SGP/SGP4

EPOCH          = 2026-02-07T03:59:51.638496
MEAN_MOTION    = 14.42870815
ECCENTRICITY   = .00037132
INCLINATION    = 98.2077
RA_OF_ASC_NODE = 91.5389
ARG_OF_PERICENTER = 149.2324
MEAN_ANOMALY   = 210.9085

EPHEMERIS_TYPE = 0
CLASSIFICATION_TYPE = U
NORAD_CAT_ID   = 21610
ELEMENT_SET_NO = 999
REV_AT_EPOCH   = 81459
BSTAR          = .13866143E-3
MEAN_MOTION_DOT = .421E-5
MEAN_MOTION_DDOT = 0

CCSDS_OMM_VERS = 2.0
CREATION_DATE  = 
ORIGINATOR     = 

OBJECT_NAME    = INTERCOSMOS 25
OBJECT_ID      = 1991-086A
CENTER_NAME    = EARTH
REF_FRAME      = TEME
TIME_SYSTEM    = UTC
MEAN_ELEMENT_THEORY = SGP/SGP4

EPOCH          = 2026-02-07T06:35:36.182976
MEAN_MOTION    = 12.11915407
ECCENTRICITY   = .1486698
INCLINATION    = 82.6086
RA_OF_ASC_NODE = 328.3874
ARG_OF_PERICENTER = 182.4558
MEAN_ANOMALY   = 176.8588

EPHEMERIS_TYPE = 0
CLASSIFICATION_TYPE = U
NORAD_CAT_ID   = 21819
ELEMENT_SET_NO = 999
REV_AT_EPOCH   = 49300
BSTAR          = .23397E-3
MEAN_MOTION_DOT = .1206E-4
MEAN_MOTION_DDOT = 0

CCSDS_OMM_VERS = 2.0
CREATION_DATE  = 
ORIGINATOR     = 

OBJECT_NAME    = SL-8 R/B
OBJECT_ID      = 1992-008B
CENTER_NAME    = EARTH
REF_FRAME      = TEME
TIME_SYSTEM    = UTC
MEAN_ELEMENT_THEORY = SGP/SGP4

EPOCH          = 2026-02-07T04:34:55.952832
MEAN_MOTION    = 13.75969598
ECCENTRICITY   = .00337579
INCLINATION    = 82.9267
RA_OF_ASC_NODE = 290.4669
ARG_OF_PERICENTER = 218.3696
MEAN_ANOMALY   = 253.5748

EPHEMERIS_TYPE = 0
CLASSIFICATION_TYPE = U
NORAD_CAT_ID   = 21876
ELEMENT_SET_NO = 999
REV_AT_EPOCH   = 70522
BSTAR          = .4902972E-4
MEAN_MOTION_DOT = .63E-6
MEAN_MOTION_DDOT = 0

CCSDS_OMM_VERS = 2.0
CREATION_DATE  = 
ORIGINATOR     = 

OBJECT_NAME    = SL-8 R/B
OBJECT_ID      = 1992-020B
CENTER_NAME    = EARTH
REF_FRAME      = TEME
TIME_SYSTEM    = UTC
MEAN_ELEMENT_THEORY = SGP/SGP4

EPOCH          = 2026-02-07T10:22:42.070368
MEAN_MOTION    = 13.75544905
ECCENTRICITY   = .0029379
INCLINATION    = 82.9327
RA_OF_ASC_NODE = 176.2197
ARG_OF_PERICENTER = 24.7305
MEAN_ANOMALY   = 35.2779

EPHEMERIS_TYPE = 0
CLASSIFICATION_TYPE = U
NORAD_CAT_ID   = 21938
ELEMENT_SET_NO = 999
REV_AT_EPOCH   = 69697
BSTAR          = .12916E-3
MEAN_MOTION_DOT = .14E-5
MEAN_MOTION_DDOT = 0

CCSDS_OMM_VERS = 2.0
CREATION_DATE  = 
ORIGINATOR     = 

OBJECT_NAME    = USA 81
OBJECT_ID      = 1992-023A
CENTER_NAME    = EARTH
REF_FRAME      = TEME
TIME_SYSTEM    = UTC
MEAN_ELEMENT_THEORY = SGP/SGP4

EPOCH          = 2026-02-07T09:50:49.176960
MEAN_MOTION    = 14.32356696
ECCENTRICITY   = .0002558
INCLINATION    = 85.0120
RA_OF_ASC_NODE = 148.9002
ARG_OF_PERICENTER = 104.6565
MEAN_ANOMALY   = 255.4911

EPHEMERIS_TYPE = 0
CLASSIFICATION_TYPE = U
NORAD_CAT_ID   = 21949
ELEMENT_SET_NO = 999
REV_AT_EPOCH   = 9045
BSTAR          = .10044E-3
MEAN_MOTION_DOT = .291E-5
MEAN_MOTION_DDOT = 0

CCSDS_OMM_VERS = 2.0
CREATION_DATE  = 
ORIGINATOR     = 

OBJECT_NAME    = COSMOS 2219
OBJECT_ID      = 1992-076A
CENTER_NAME    = EARTH
REF_FRAME      = TEME
TIME_SYSTEM    = UTC
MEAN_ELEMENT_THEORY = SGP/SGP4

EPOCH          = 2026-02-07T10:58:16.837248
MEAN_MOTION    = 14.14076716
ECCENTRICITY   = .0020388
INCLINATION    = 71.0585
RA_OF_ASC_NODE = 81.2724
ARG_OF_PERICENTER = 248.7085
MEAN_ANOMALY   = 111.1860

EPHEMERIS_TYPE = 0
CLASSIFICATION_TYPE = U
NORAD_CAT_ID   = 22219
ELEMENT_SET_NO = 999
REV_AT_EPOCH   = 71410
BSTAR          = -.42146E-4
MEAN_MOTION_DOT = -.128E-5
MEAN_MOTION_DDOT = 0

CCSDS_OMM_VERS = 2.0
CREATION_DATE  = 
ORIGINATOR     = 

OBJECT_NAME    = SL-16 R/B
OBJECT_ID      = 1992-076B
CENTER_NAME    = EARTH
REF_FRAME      = TEME
TIME_SYSTEM    = UTC
MEAN_ELEMENT_THEORY = SGP/SGP4

EPOCH          = 2026-02-07T01:36:05.294016
MEAN_MOTION    = 14.16855283
ECCENTRICITY   = .00116049
INCLINATION    = 70.9980
RA_OF_ASC_NODE = 252.8814
ARG_OF_PERICENTER = 150.8095
MEAN_ANOMALY   = 323.8049

EPHEMERIS_TYPE = 0
CLASSIFICATION_TYPE = U
NORAD_CAT_ID   = 22220
ELEMENT_SET_NO = 999
REV_AT_EPOCH   = 71749
BSTAR          = .11010955E-3
MEAN_MOTION_DOT = .173E-5
MEAN_MOTION_DDOT = 0

CCSDS_OMM_VERS = 2.0
CREATION_DATE  = 
ORIGINATOR     = 

OBJECT_NAME    = COSMOS 2221
OBJECT_ID      = 1992-080A
CENTER_NAME    = EARTH
REF_FRAME      = TEME
TIME_SYSTEM    = UTC
MEAN_ELEMENT_THEORY = SGP/SGP4

EPOCH          = 2026-02-07T04:57:41.249952
MEAN_MOTION    = 14.96078512
ECCENTRICITY   = .0012999
INCLINATION    = 82.5058
RA_OF_ASC_NODE = 308.2744
ARG_OF_PERICENTER = 299.3719
MEAN_ANOMALY   = 60.6204

EPHEMERIS_TYPE = 0
CLASSIFICATION_TYPE = U
NORAD_CAT_ID   = 22236
ELEMENT_SET_NO = 999
REV_AT_EPOCH   = 77623
BSTAR          = .25908E-3
MEAN_MOTION_DOT = .294E-4
MEAN_MOTION_DDOT = 0

CCSDS_OMM_VERS = 2.0
CREATION_DATE  = 
ORIGINATOR     = 

OBJECT_NAME    = SL-16 R/B
OBJECT_ID      = 1992-093B
CENTER_NAME    = EARTH
REF_FRAME      = TEME
TIME_SYSTEM    = UTC
MEAN_ELEMENT_THEORY = SGP/SGP4

EPOCH          = 2026-02-07T11:49:24.185856
MEAN_MOTION    = 14.15441111
ECCENTRICITY   = .0005114
INCLINATION    = 71.0201
RA_OF_ASC_NODE = 67.6598
ARG_OF_PERICENTER = 325.2803
MEAN_ANOMALY   = 34.7985

EPHEMERIS_TYPE = 0
CLASSIFICATION_TYPE = U
NORAD_CAT_ID   = 22285
ELEMENT_SET_NO = 999
REV_AT_EPOCH   = 70888
BSTAR          = -.46064E-4
MEAN_MOTION_DOT = -.138E-5
MEAN_MOTION_DDOT = 0

CCSDS_OMM_VERS = 2.0
CREATION_DATE  = 
ORIGINATOR     = 

OBJECT_NAME    = COSMOS 2228
OBJECT_ID      = 1992-094A
CENTER_NAME    = EARTH
REF_FRAME      = TEME
TIME_SYSTEM    = UTC
MEAN_ELEMENT_THEORY = SGP/SGP4

EPOCH          = 2026-02-07T10:38:40.725888
MEAN_MOTION    = 14.97052244
ECCENTRICITY   = .0019153
INCLINATION    = 82.5156
RA_OF_ASC_NODE = 266.2738
ARG_OF_PERICENTER = 46.8569
MEAN_ANOMALY   = 313.4251

EPHEMERIS_TYPE = 0
CLASSIFICATION_TYPE = U
NORAD_CAT_ID   = 22286
ELEMENT_SET_NO = 999
REV_AT_EPOCH   = 77153
BSTAR          = .24712E-3
MEAN_MOTION_DOT = .2883E-4
MEAN_MOTION_DDOT = 0

